[{"OBJECT_NAME":"STARLINK-32669","OBJECT_ID":"2024-229X","EPOCH":"2026-03-09T22:09:37.759680","MEAN_MOTION":15.27604727,"ECCENTRICITY":7.032e-5,"INCLINATION":42.9965,"RA_OF_ASC_NODE":269.689,"ARG_OF_PERICENTER":349.3968,"MEAN_ANOMALY":10.6868,"EPHEMERIS_TYPE":0,"CLASSIFICATION_TYPE":"U","NORAD_CAT_ID":62213,"ELEMENT_SET_NO":999,"REV_AT_EPOCH":7059,"BSTAR":0.0014750025,"MEAN_MOTION_DOT":0.00040581,"MEAN_MOTION_DDOT":0},{"OBJECT_NAME":"COSMOS 1862","OBJECT_ID":"1987-055A","EPOCH":"2026-03-09T22:37:02.390592","MEAN_MOTION":15.30492139,"ECCENTRICITY":0.00097484,"INCLINATION":82.4856,"RA_OF_ASC_NODE":47.1862,"ARG_OF_PERICENTER":26.6325,"MEAN_ANOMALY":333.5414,"EPHEMERIS_TYPE":0,"CLASSIFICATION_TYPE":"U","NORAD_CAT_ID":18152,"ELEMENT_SET_NO":999,"REV_AT_EPOCH":8987,"BSTAR":0.00034125048,"MEAN_MOTION_DOT":0.00010107,"MEAN_MOTION_DDOT":0}]
